NORAD_CAT_ID,OBJECT_NAME,OBJECT_TYPE,EPOCH,MEAN_MOTION,ECCENTRICITY,INCLINATION,RA_OF_ASC_NODE,ARG_OF_PERICENTER,MEAN_ANOMALY,BSTAR,MEAN_MOTION_DOT,MEAN_MOTION_DDOT,TLE_LINE0,TLE_LINE1,TLE_LINE2,SEMIMAJOR_AXIS,PERIOD,APOGEE,PERIGEE,DECAYED
52116.0,STARLINK-3735,PAYLOAD,2022-10-09 17:00:16,15.08839829,0.0001754,53.2178,277.0325,50.7955,309.3193,4.6016e-05,4.44e-06,0.0,0 STARLINK-3735,1 52116U 22029AE  22282.70852606  .00000444  00000-0  46016-4 0  9993,2 52116  53.2178 277.0325 0001754  50.7955 309.3193 15.08839829 32531,6917.880999999999,95.438,540.9590000000002,538.533,0.0
52116.0,STARLINK-3735,PAYLOAD,2022-10-10 10:29:31,15.08841339,0.0001702,53.2171,273.7608,50.5281,309.5861,0.00018609,2.675e-05,0.0,0 STARLINK-3735,1 52116U 22029AE  22283.43716635  .00002675  00000-0  18609-3 0  9999,2 52116  53.2171 273.7608 0001702  50.5281 309.5861 15.08841339 32649,6917.876,95.437,540.919,538.564,0.0
52116.0,STARLINK-3735,PAYLOAD,2022-10-11 05:34:09,15.08839164,0.0001621,53.2176,270.1919,47.4498,312.6631,0.00014421,2.008e-05,0.0,0 STARLINK-3735,1 52116U 22029AE  22284.23204898  .00002008  00000-0  14421-3 0  9999,2 52116  53.2176 270.1919 0001621  47.4498 312.6631 15.08839164 32761,6917.8830000000025,95.438,540.869,538.627,0.0
52116.0,STARLINK-3735,PAYLOAD,2022-10-11 10:20:18,15.08830695,0.0001623,53.2178,269.301,48.4116,311.7015,-5.1985e-05,-1.115e-05,0.0,0 STARLINK-3735,1 52116U 22029AE  22284.43077457 -.00001115  00000-0 -51985-4 0  9997,2 52116  53.2178 269.3010 0001623  48.4116 311.7015 15.08830695 32794,6917.909000000002,95.438,540.8969999999998,538.651,0.0
52116.0,STARLINK-3735,PAYLOAD,2022-10-12 10:11:06,15.08844688,0.0001614,53.2177,264.84,49.2743,310.8389,0.00036359,5.504e-05,0.0,0 STARLINK-3735,1 52116U 22029AE  22285.42437636  .00005504  00000-0  36359-3 0  9997,2 52116  53.2177 264.8400 0001614  49.2743 310.8389 15.08844688 32949,6917.866,95.437,540.8480000000002,538.615,0.0
52116.0,STARLINK-3735,PAYLOAD,2022-10-13 05:15:44,15.08837304,0.0001564,53.218,261.2717,46.1316,313.9805,0.00019486,2.814e-05,0.0,0 STARLINK-3735,1 52116U 22029AE  22286.21926165  .00002814  00000-0  19486-3 0  9998,2 52116  53.2180 261.2717 0001564  46.1316 313.9805 15.08837304 33069,6917.889,95.438,540.836,538.672,0.0
52116.0,STARLINK-3735,PAYLOAD,2022-10-13 10:01:53,15.08840761,0.000157,53.2181,260.3797,47.7024,312.4101,0.00025854,3.829e-05,0.0,0 STARLINK-3735,1 52116U 22029AE  22286.41798118  .00003829  00000-0  25854-3 0  9998,2 52116  53.2181 260.3797 0001570  47.7024 312.4101 15.08840761 33095,6917.878000000002,95.438,540.8290000000002,538.6569999999998,0.0
52116.0,STARLINK-3735,PAYLOAD,2022-10-14 09:52:40,15.0885113,0.0001595999999999,53.2181,255.9198,51.7234,308.3902,0.00022289,3.262e-05,0.0,0 STARLINK-3735,1 52116U 22029AE  22287.41157418  .00003262  00000-0  22289-3 0  9991,2 52116  53.2181 255.9198 0001596  51.7234 308.3902 15.08851130 33248,6917.846,95.437,540.815,538.607,0.0
52116.0,STARLINK-3735,PAYLOAD,2022-10-14 14:38:49,15.08852378,0.0001614,53.2181,255.0277,51.5144,308.5993,0.00021423,3.124e-05,0.0,0 STARLINK-3735,1 52116U 22029AE  22287.61029235  .00003124  00000-0  21423-3 0  9994,2 52116  53.2181 255.0277 0001614  51.5144 308.5993 15.08852378 33276,6917.843000000003,95.437,540.8240000000002,538.591,0.0
52116.0,STARLINK-3735,PAYLOAD,2022-10-15 09:43:26,15.08850667,0.0001858,53.2184,251.462,59.07899999999999,301.0385,-1.0628e-05,-4.57e-06,0.0,0 STARLINK-3735,1 52116U 22029AE  22288.40516742 -.00000457  00000-0 -10628-4 0  9990,2 52116  53.2184 251.4620 0001858  59.0790 301.0385 15.08850667 33396,6917.848000000001,95.437,540.998,538.427,0.0
52116.0,STARLINK-3735,PAYLOAD,2022-10-16 03:12:41,15.08840333,0.0001495,53.2179,248.1888,62.7566,297.3578,-0.00010265,-1.921e-05,0.0,0 STARLINK-3735,1 52116U 22029AE  22289.13380891 -.00001921  00000-0 -10265-3 0  9998,2 52116  53.2179 248.1888 0001495  62.7566 297.3578 15.08840333 33501,6917.879,95.438,540.779,538.71,0.0
52116.0,STARLINK-3735,PAYLOAD,2022-10-16 09:34:14,15.08825772,0.0001547,53.2181,246.9997,60.8357,299.279,-0.00023954,-4.097e-05,0.0,0 STARLINK-3735,1 52116U 22029AE  22289.39877892 -.00004097  00000-0 -23954-3 0  9994,2 52116  53.2181 246.9997 0001547  60.8357 299.2790 15.08825772 33547,6917.924,95.438,540.859,538.719,0.0
52116.0,STARLINK-3735,PAYLOAD,2022-10-16 20:41:56,15.08830973,0.0001428,53.2189,244.9177,55.2494,304.8633,-0.00015734,-2.79e-05,0.0,0 STARLINK-3735,1 52116U 22029AE  22289.86245815 -.00002790  00000-0 -15734-3 0  9995,2 52116  53.2189 244.9177 0001428  55.2494 304.8633 15.08830973 33617,6917.908,95.438,540.761,538.785,0.0
52116.0,STARLINK-3735,PAYLOAD,2022-10-17 03:03:28,15.08839989,0.0001475,53.2167,243.7281,41.2368,318.8735,7.3524e-05,8.82e-06,0.0,0 STARLINK-3735,1 52116U 22029AE  22290.12741470  .00000882  00000-0  73524-4 0  9994,2 52116  53.2167 243.7281 0001475  41.2368 318.8735 15.08839989 33651,6917.88,95.438,540.766,538.725,0.0
52116.0,STARLINK-3735,PAYLOAD,2022-10-17 09:25:01,15.0883458,0.0001593,53.2172,242.5393,62.0804,298.035,2.7384e-05,1.48e-06,0.0,0 STARLINK-3735,1 52116U 22029AE  22290.39237819  .00000148  00000-0  27384-4 0  9998,2 52116  53.2172 242.5393 0001593  62.0804 298.0350 15.08834580 33693,6917.897,95.438,540.864,538.66,0.0
52116.0,STARLINK-3735,PAYLOAD,2022-10-17 14:11:10,15.08835591,0.0001526,53.2176,241.648,57.9064,302.2076,0.00011458,1.536e-05,0.0,0 STARLINK-3735,1 52116U 22029AE  22290.59109905  .00001536  00000-0  11458-3 0  9990,2 52116  53.2176 241.6480 0001526  57.9064 302.2076 15.08835591 33721,6917.894,95.438,540.815,538.703,0.0
52116.0,STARLINK-3735,PAYLOAD,2022-10-18 07:40:25,15.08839555,0.0001657,53.2176,238.3768,56.3651,303.7499,0.00021729,3.172e-05,0.0,0 STARLINK-3735,1 52116U 22029AE  22291.31973979  .00003172  00000-0  21729-3 0  9991,2 52116  53.2176 238.3768 0001657  56.3651 303.7499 15.08839555 33834,6917.882,95.438,540.893,538.6,0.0
52116.0,STARLINK-3735,PAYLOAD,2022-10-18 14:01:58,15.08831885,0.0001710999999999,53.2176,237.1874,56.4056,303.71,4.4604000000000005e-06,-2.17e-06,0.0,0 STARLINK-3735,1 52116U 22029AE  22291.58470364 -.00000217  00000-0  44604-5 0  9997,2 52116  53.2176 237.1874 0001711  56.4056 303.7100 15.08831885 33871,6917.905,95.438,540.9540000000002,538.587,0.0
52116.0,STARLINK-3735,PAYLOAD,2022-10-19 07:31:13,15.08829661,0.0001631,53.2182,233.9161,61.0237,299.0918,-2.0731e-05,-6.18e-06,0.0,0 STARLINK-3735,1 52116U 22029AE  22292.31335212 -.00000618  00000-0 -20731-4 0  9991,2 52116  53.2182 233.9161 0001631  61.0237 299.0918 15.08829661 33980,6917.9119999999975,95.438,540.905,538.649,0.0
52116.0,STARLINK-3735,PAYLOAD,2022-10-20 04:11:13,15.08849056,0.0001631999999999,53.2181,230.0509,61.7088,298.4069,0.0002299999999999,3.375e-05,0.0,0 STARLINK-3735,1 52116U 22029AE  22293.17446684  .00003375  00000-0  23000-3 0  9994,2 52116  53.2181 230.0509 0001632  61.7088 298.4069 15.08849056 34111,6917.853,95.437,540.847,538.589,0.0
52116.0,STARLINK-3735,PAYLOAD,2022-10-20 07:22:00,15.08848285,0.0001651,53.2177,229.456,62.4703,297.6457,0.00041694,6.355e-05,0.0,0 STARLINK-3735,1 52116U 22029AE  22293.30694888  .00006355  00000-0  41694-3 0  9990,2 52116  53.2177 229.4560 0001651  62.4703 297.6457 15.08848285 34135,6917.855,95.437,540.862,538.578,0.0
52116.0,STARLINK-3735,PAYLOAD,2022-10-21 02:26:37,15.08851725,0.0001669,53.2182,225.888,63.5523,296.564,0.00040881,6.226e-05,0.0,0 STARLINK-3735,1 52116U 22029AE  22294.10182767  .00006226  00000-0  40881-3 0  9991,2 52116  53.2182 225.8880 0001669  63.5523 296.5640 15.08851725 34255,6917.845,95.437,540.864,538.555,0.0
52116.0,STARLINK-3735,PAYLOAD,2022-10-21 11:58:56,15.08850964,0.0001648,53.2181,224.1029,61.4045,298.7113,0.00014634,2.042e-05,0.0,0 STARLINK-3735,1 52116U 22029AE  22294.49926491  .00002042  00000-0  14634-3 0  9992,2 52116  53.2181 224.1029 0001648  61.4045 298.7113 15.08850964 34314,6917.847,95.437,540.852,538.572,0.0
52116.0,STARLINK-3735,PAYLOAD,2022-10-22 02:17:24,15.08841794,0.0001664,53.2184,221.4277,64.2201,295.8963,-6.3298e-05,-1.295e-05,0.0,0 STARLINK-3735,1 52116U 22029AE  22295.09542704 -.00001295  00000-0 -63298-4 0  9992,2 52116  53.2184 221.4277 0001664  64.2201 295.8963 15.08841794 34407,6917.875,95.437,540.891,538.589,0.0
52116.0,STARLINK-3735,PAYLOAD,2022-10-22 07:03:34,15.08844234,0.0001636,53.2192,220.5359,64.3259,295.7902,3.2567e-06,-2.36e-06,0.0,0 STARLINK-3735,1 52116U 22029AE  22295.29414818 -.00000236  00000-0  32567-5 0  9997,2 52116  53.2192 220.5359 0001636  64.3259 295.7902 15.08844234 34437,6917.8669999999975,95.437,540.864,538.601,0.0
52116.0,STARLINK-3735,PAYLOAD,2022-10-22 19:46:39,15.08844562,0.0001614,53.2191,218.1569,62.9415,297.1742,7.3321e-05,8.79e-06,0.0,0 STARLINK-3735,1 52116U 22029AE  22295.82406434  .00000879  00000-0  73321-4 0  9995,2 52116  53.2191 218.1569 0001614  62.9415 297.1742 15.08844562 34517,6917.866,95.437,540.8480000000002,538.615,0.0
52116.0,STARLINK-3735,PAYLOAD,2022-10-23 03:43:34,15.08851111,0.0001607,53.2191,216.6702,62.2312,297.8843,4.0662e-05,3.59e-06,0.0,0 STARLINK-3735,1 52116U 22029AE  22296.15525957  .00000359  00000-0  40662-4 0  9999,2 52116  53.2191 216.6702 0001607  62.2312 297.8843 15.08851111 34562,6917.846,95.437,540.823,538.6,0.0
52116.0,STARLINK-3735,PAYLOAD,2022-10-23 06:54:20,15.088539,0.0001606,53.2191,216.0755,61.8346,298.2808,6.2714e-05,7.11e-06,0.0,0 STARLINK-3735,1 52116U 22029AE  22296.28773627  .00000711  00000-0  62714-4 0  9996,2 52116  53.2191 216.0755 0001606  61.8346 298.2808 15.08853900 34581,6917.8380000000025,95.437,540.814,538.592,0.0
52116.0,STARLINK-3735,PAYLOAD,2022-10-24 03:34:21,15.08847724,0.0001563,53.219,212.2101,62.3775,297.7376,0.00012699,1.734e-05,0.0,0 STARLINK-3735,1 52116U 22029AE  22297.14885443  .00001734  00000-0  12699-3 0  9994,2 52116  53.2190 212.2101 0001563  62.3775 297.7376 15.08847724 34713,6917.857,95.437,540.803,538.641,0.0
